satname,norad_id,inclination_deg,eccentricity,mean_motion_rev_per_day,perigee_km,apogee_km,l1,l2
STARLINK-1234,45190,53.0362,0.0004639,15.75141389,341.11036715378305,347.34737821045655,1 45190U 20012N   26162.41604919  .00057986  00000+0  38123-3 0  9999,2 45190  53.0362 222.5084 0004639 288.6318  71.4196 15.75141389350595
STARLINK-1269,45197,53.1569,3.66e-05,15.35343205,459.65099924860533,460.15154365007675,1 45197U 20012V   26162.69676459  .00049179  00000+0  14141-2 0  9992,2 45197  53.1569 321.7903 0000366 138.5132 221.5899 15.35343205349328
STARLINK-1154,45198,53.0423,0.0002487,15.64089261,374.1795835084904,377.53902126929825,1 45198U 20012W   26162.62079750  .00039461  00000+0  41255-3 0  9997,2 45198  53.0423 276.1988 0002487   0.3767 359.7249 15.64089261349907
STARLINK-1199,45201,53.1575,0.0002152,15.35357647,458.3868544505358,461.32992766684674,1 45201U 20012Z   26162.66782725  .00052566  00000+0  15093-2 0  9990,2 45201  53.1575 306.1957 0002152 293.3932  66.6844 15.35357647349569
STARLINK-1209,45206,53.0377,0.0007027,15.66149473,365.19304382765404,374.67678409553446,1 45206U 20012AE  26162.45090510  .00038368  00000+0  36948-3 0  9993,2 45206  53.0377 237.1902 0007027 257.4424 102.5805 15.66149473349544
STARLINK-1231,45212,53.0379,0.0002567,15.28115307,479.68580711899085,483.20751737118735,1 45212U 20012AL  26162.66971463  .00038867  00000+0  14043-2 0  9993,2 45212  53.0379 301.6148 0002567  71.3902 288.7375 15.28115307349568
STARLINK-1271,45217,53.1576,0.0001862,15.35533947,458.0618477161661,460.6081222833791,1 45217U 20012AR  26162.66483568  .00052780  00000+0  15069-2 0  9991,2 45217  53.1576 306.3236 0001862 291.2405  68.8399 15.35533947349566
STARLINK-1191,45222,53.1552,0.0002172,15.39587784,445.84487523770076,448.8098569583344,1 45222U 20012AW  26162.63490359  .00052064  00000+0  13040-2 0  9992,2 45222  53.1552 279.3562 0002172 247.2490 112.8286 15.39587784349946
STARLINK-1212,45223,53.0395,9.27e-05,15.67574752,365.21878061705775,366.46911468475173,1 45223U 20012AX  26162.91196065  .00050724  00000+0  45937-3 0  9993,2 45223  53.0395 250.4911 0000927  69.4375 290.6740 15.67574752350350
STARLINK-1215,45225,53.1573,0.0003313,15.35728047,456.49378586104103,461.02391305089077,1 45225U 20012AZ  26162.59888274  .00040244  00000+0  11463-2 0  9991,2 45225  53.1573 280.8995 0003313 301.0613  59.0065 15.35728047349877
STARLINK-1221,45227,53.063,0.0002673,15.44947023,429.7135140315404,433.3539640086201,1 45227U 20012BB  26162.34715859  .00012158  00000+0  26274-3 0  9994,2 45227  53.0630 184.7407 0002673 335.3601  24.7277 15.44947023351174
STARLINK-1222,45228,53.0529,0.0002797,15.55380249,399.1513797407015,402.9436555598759,1 45228U 20012BC  26162.55034574  .00031677  00000+0  46278-3 0  9999,2 45228  53.0529 250.8357 0002797  18.6133 341.4979 15.55380249350203
STARLINK-1226,45229,53.1546,0.000352,15.44604574,430.1428426718985,434.93755942143434,1 45229U 20012BD  26162.60592275  .00057521  00000+0  12168-2 0  9999,2 45229  53.1546 276.6672 0003520 296.4173  63.6473 15.44604574349876
STARLINK-1227,45230,53.154,0.0003333,15.44704086,429.9777944462139,434.51759688434504,1 45230U 20012BE  26162.61551230  .00057044  00000+0  12029-2 0  9994,2 45230  53.1540 276.7262 0003333 287.9711  72.0932 15.44704086349999
STARLINK-1246,45235,53.1571,0.0001976,15.35298466,458.68288967826356,461.38533490184,1 45235U 20012BK  26162.70319726  .00043630  00000+0  12585-2 0  9994,2 45235  53.1571 321.3866 0001976 242.5793 117.5009 15.35298466349386
STARLINK-1270,45237,53.0398,0.0003298,15.63196059,376.203539652789,380.66017247024774,1 45237U 20012BM  26162.55468050  .00095187  00000+0  10154-2 0  9998,2 45237  53.0398 253.7638 0003298 319.2855  40.7911 15.63196059350274
STARLINK-1279,45360,53.0367,0.0005685,15.75471847,339.4676905019114,347.1099516604809,1 45360U 20019A   26162.77310417  .00080505  00000+0  51859-3 0  9995,2 45360  53.0367 355.4925 0005685 126.9955 233.1585 15.75471847345422
STARLINK-1301,45361,53.0357,3.78e-05,15.81015998,327.3127919617082,327.81974312873535,1 45361U 20019B   26162.79497317  .00101006  00000+0  50590-3 0  9994,2 45361  53.0357 357.7898 0000378 354.2118   5.8899 15.81015998345405
STARLINK-1262,45366,53.1525,0.0003625,15.34290926,460.5475282138441,465.507372440331,1 45366U 20019G   26162.93739635  .00025740  00000+0  77292-3 0  9995,2 45366  53.1525  86.7686 0003625  84.3732 275.7684 15.34290926344192
STARLINK-1273,45367,53.0433,0.0004669,15.57663987,391.25767988954794,397.5818934169247,1 45367U 20019H   26162.92637331  .00060003  00000+0  79668-3 0  9995,2 45367  53.0433  61.7994 0004669  74.8075 285.3452 15.57663987344521
STARLINK-1277,45369,53.0418,0.0004295,15.64835434,370.81217114024366,376.61200950883267,1 45369U 20019K   26162.92423791  .00045495  00000+0  46054-3 0  9991,2 45369  53.0418  55.6205 0004295  68.5025 291.6447 15.64835434344613
STARLINK-1281,45370,53.1545,0.0004972,15.35262564,456.740726938845,463.5407103022417,1 45370U 20019L   26162.94649651  .00035517  00000+0  10285-2 0  9990,2 45370  53.1545  86.3293 0004972  80.2881 279.8683 15.35262564344209
STARLINK-1300,45374,53.1562,0.0004395,15.35847586,455.399429490657,461.4087491081509,1 45374U 20019Q   26162.95734097  .00047194  00000+0  13359-2 0  9993,2 45374  53.1562  86.1722 0004395 101.2741 258.8756 15.35847586344206
STARLINK-1302,45375,53.0456,0.0004886,15.67745991,362.05798977753966,368.64772806767814,1 45375U 20019R   26162.91238670  .00049256  00000+0  44301-3 0  9999,2 45375  53.0456  51.6727 0004886  83.5708 276.5864 15.67745991344669
STARLINK-1304,45376,53.0428,0.0004945,15.63266733,374.88719265693453,381.56923785482286,1 45376U 20019S   26162.98918275  .00059625  00000+0  63901-3 0  9991,2 45376  53.0428  52.7440 0004945 102.6739 257.4827 15.63266733344650
STARLINK-1305,45377,53.0377,0.0002746,15.72045125,351.2044046821711,354.90117411450865,1 45377U 20019T   26162.92004225  .00056632  00000+0  42543-3 0  9991,2 45377  53.0377  31.3559 0002746 221.0589 139.0222 15.72045125344951
STARLINK-1319,45379,53.0377,0.0002339,15.78076037,334.321770849323,337.46259370079133,1 45379U 20019V   26162.93629380  .00078492  00000+0  45123-3 0  9994,2 45379  53.0377  22.7987 0002339 115.7805 244.3456 15.78076037345075
STARLINK-1266,45383,53.0455,0.0001211,15.66260443,368.79902207250507,370.43332789148553,1 45383U 20019Z   26162.93461565  .00045782  00000+0  43796-3 0  9998,2 45383  53.0455  37.8827 0001211 167.7909 192.3135 15.66260443344851
STARLINK-1267,45384,53.044,0.0006178,15.65721984,366.9934242868485,375.3328595421972,1 45384U 20019AA  26162.90372213  .00046118  00000+0  45036-3 0  9990,2 45384  53.0440  29.2711 0006178 125.8440 234.3149 15.65721984344971
STARLINK-1272,45386,53.0398,0.0006287,15.70260008,353.9181917695887,362.3884031896405,1 45386U 20019AC  26162.84937797  .00059791  00000+0  48318-3 0  9996,2 45386  53.0398   8.1803 0006287 106.6969 253.4738 15.70260008345267
STARLINK-1274,45387,53.0207,0.0006728,15.62608092,375.5796656353614,384.6735851697031,1 45387U 20019AD  26162.76855567  .00094753  00000+0  10335-2 0  9996,2 45387  53.0207   8.0119 0006728 157.6062 202.5246 15.62608092345254
STARLINK-1280,45388,53.0359,9.3e-06,15.8295778,322.0190008638974,322.143624924518,1 45388U 20019AE  26162.86396091  .00114615  00000+0  52324-3 0  9995,2 45388  53.0359  15.2997 0000093  26.4741 333.6286 15.82957780345155
STARLINK-1283,45389,53.0403,0.0002527,15.72063867,351.29833207016327,354.70024835123695,1 45389U 20019AF  26162.79845225  .00063373  00000+0  47478-3 0  9994,2 45389  53.0403   7.4645 0002527 158.2037 201.9088 15.72063867345278
STARLINK-1284,45390,53.0413,0.0003815,15.70415219,355.13971340971875,360.27916424254363,1 45390U 20019AG  26162.88404065  .00055457  00000+0  44613-3 0  9991,2 45390  53.0413  30.9751 0003815  54.3618 305.7754 15.70415219344948
STARLINK-1297,45395,53.0422,0.0005596,15.68728354,358.76522891909826,366.3093916071448,1 45395U 20019AM  26162.90302513  .00052983  00000+0  45715-3 0  9999,2 45395  53.0422  29.9646 0005596  69.0767 291.0848 15.68728354344147
STARLINK-1307,45397,53.0528,0.0001876,15.56936036,395.2597165982943,397.801571898417,1 45397U 20019AP  26162.92310905  .00033646  00000+0  46364-3 0  9993,2 45397  53.0528  36.1202 0001876 117.5150 242.6052 15.56936036344702
STARLINK-1255,45399,53.0352,0.000436,15.66160837,366.96012630763016,372.84441655231785,1 45399U 20019AR  26162.81109784  .00040014  00000+0  38512-3 0  9997,2 45399  53.0352   4.2568 0004360 124.7867 235.3559 15.66160837345123
STARLINK-1260,45404,53.1563,0.0005669,15.38364568,447.0736156972507,454.8164288941289,1 45404U 20019AW  26162.91648630  .00055188  00000+0  14369-2 0  9994,2 45404  53.1563  49.0962 0005669 103.2834 256.8803 15.38364568344438
STARLINK-1263,45405,53.158,0.0004024,15.35360427,457.0985308891304,462.6017429369185,1 45405U 20019AX  26162.95948944  .00037159  00000+0  10721-2 0  9996,2 45405  53.1580  50.2389 0004024 124.9840 235.1541 15.35360427344421
STARLINK-1265,45406,53.1557,0.0004247,15.38639308,447.2320966337011,453.03202837539175,1 45406U 20019AY  26162.97290123  .00047881  00000+0  12383-2 0  9997,2 45406  53.1557  48.8077 0004247  94.5377 265.6113 15.38639308344442
STARLINK-1278,45408,53.0399,0.0005519,15.69659896,356.15142656633816,363.5888388394169,1 45408U 20019BA  26162.92705915  .00055527  00000+0  46071-3 0  9992,2 45408  53.0399  28.7504 0005519  93.6669 266.4978 15.69659896344701
STARLINK-1296,45412,53.1561,0.0004855,15.38830564,446.2514260021562,452.8811258830965,1 45412U 20019BE  26162.94709075  .00046611  00000+0  11984-2 0  9998,2 45412  53.1561  48.6167 0004855  90.2629 269.8932 15.38830564344442
STARLINK-1309,45414,53.0611,0.0005546,15.68645742,359.0354619507525,366.5124803999797,1 45414U 20019BG  26162.82237971  .00050003  00000+0  43334-3 0  9993,2 45414  53.0611  23.2477 0005546  64.1546 296.0042 15.68645742344751
